STARLETTE               
1 07646U 75010A   22223.48742914 -.00000121  00000+0  19203-4 0  9999
2 07646  49.8218 252.9918 0205767  99.3682 263.0538 13.82313226400098
LAGEOS 1                
1 08820U 76039A   22223.50544626  .00000027  00000+0  00000+0 0  9993
2 08820 109.8524  57.8499 0045105 243.0248 101.2049  6.38664830823362
AJISAI (EGS)            
1 16908U 86061A   22223.57884260 -.00000108  00000+0 -76036-4 0  9992
2 16908  50.0084 149.5353 0011210 202.5317 161.6483 12.44497042305361
COSMOS 1989 (ETALON 1)  
1 19751U 89001C   22223.46067354  .00000001  00000+0  00000+0 0  9996
2 19751  64.3146 120.4944 0023794 213.3848 332.3385  2.13156212261400
COSMOS 2024 (ETALON 2)  
1 20026U 89039C   22223.04638999 -.00000075  00000+0  00000+0 0  9999
2 20026  65.5355 358.5349 0018496 218.4717 288.2664  2.13204208258526
LAGEOS 2                
1 22195U 92070B   22223.31399785 -.00000009  00000+0  00000+0 0  9991
2 22195  52.6601  75.1227 0138316 292.8098 215.7045  6.47293771704400
STELLA                  
1 22824U 93061B   22223.57801164 -.00000028  00000+0  74367-5 0  9992
2 22824  98.9628 245.8849 0006412   5.7832 112.6129 14.27392231504241
LARES                   
1 38077U 12006A   22223.26367494 -.00000027  00000+0  70456-4 0  9991
2 38077  69.4917 173.6825 0011367 282.1565  77.8195 12.54931427480784
